[{"OBJECT_NAME":"TOMORROW-S8","OBJECT_ID":"2025-248R","EPOCH":"2026-03-08T08:30:15.739776","MEAN_MOTION":15.19548137,"ECCENTRICITY":0.0004521,"INCLINATION":45.397,"RA_OF_ASC_NODE":301.546,"ARG_OF_PERICENTER":191.3036,"MEAN_ANOMALY":168.7749,"EPHEMERIS_TYPE":0,"CLASSIFICATION_TYPE":"U","NORAD_CAT_ID":66308,"ELEMENT_SET_NO":999,"REV_AT_EPOCH":1917,"BSTAR":0.00031708392,"MEAN_MOTION_DOT":6.587e-5,"MEAN_MOTION_DDOT":0},{"OBJECT_NAME":"KUIPER-00184","OBJECT_ID":"2025-301G","EPOCH":"2026-03-09T22:00:01.999584","MEAN_MOTION":15.32782365,"ECCENTRICITY":0.00116958,"INCLINATION":51.8667,"RA_OF_ASC_NODE":64.5953,"ARG_OF_PERICENTER":53.2996,"MEAN_ANOMALY":333.7065,"EPHEMERIS_TYPE":0,"CLASSIFICATION_TYPE":"U","NORAD_CAT_ID":67139,"ELEMENT_SET_NO":999,"REV_AT_EPOCH":554,"BSTAR":-0.036844053,"MEAN_MOTION_DOT":-0.01088594,"MEAN_MOTION_DDOT":0}]
